[Satellite]
VERSION=1.1
NAME=ONEWEB U
NICKNAME=ONEWEB U
TLE1=1 45149U 20008U   20067.25001157 -.00000420  00000-0 -20151-4 0  9990
TLE2=2 45149  87.3951 154.3550 0017972 190.1060 190.4324 15.21797815  5266
STATUS=0
